STARLINK-35855          
1 66891U 25283P   25354.50002315 -.00065673  00000+0 -44697-3 0  9996
2 66891  53.1577  34.8542 0001338  81.3809 145.1048 15.74220674  3677
STARLINK-35883          
1 66892U 25283Q   25354.50002315 -.00014353  00000+0 -93897-4 0  9993
2 66892  53.1578  34.8498 0001229  63.8667 164.5593 15.74182465  3614
STARLINK-36033          
1 66893U 25283R   25354.50002315 -.00010303  00000+0 -66181-4 0  9991
2 66893  53.1578  34.8455 0001020  69.2902 161.0495 15.74174225  3673
STARLINK-35718          
1 66894U 25283S   25354.50002315  .00049365  00000+0  34024-3 0  9990
2 66894  53.1579  34.8422 0001076  74.6419 157.6532 15.74130427  3672
STARLINK-35971          
1 66895U 25283T   25354.50002315 -.00056521  00000+0 -38398-3 0  9993
2 66895  53.1580  34.8329 0001320  75.6649 160.4280 15.74201981  3675
STARLINK-35791          
1 66896U 25283U   25354.50002315 -.00035847  00000+0 -24151-3 0  9994
2 66896  53.1576  34.8371 0001199  80.5347 153.6491 15.74187790  3671
STARLINK-36079          
1 66897U 25283V   25354.50002315 -.00046482  00000+0 -31476-3 0  9990
2 66897  53.1575  34.8296 0001176  74.5805 163.4364 15.74193188  3670
STARLINK-36065          
1 66898U 25283W   25354.50002315 -.00020009  00000+0 -13268-3 0  9997
2 66898  53.1580  34.8248 0000900  73.1524 166.7702 15.74183757  3674
STARLINK-36064          
1 66899U 25283X   25354.50002315 -.00034710  00000+0 -23367-3 0  9993
2 66899  53.1577  34.8209 0001429  87.2259 154.6179 15.74188144  3619
STARLINK-36074          
1 66900U 25283Y   25354.50002315 -.00047434  00000+0 -32132-3 0  9993
2 66900  53.1577  34.8169 0001006  66.2275 177.5251 15.74194697  3674
STARLINK-36043          
1 66901U 25283Z   25354.50002315 -.00106873  00000+0 -73175-3 0  9999
2 66901  53.1578  34.8128 0001462  63.5694 182.0189 15.74280190  3677
STARLINK-35983          
1 66902U 25283AA  25354.50002315  .00207628  00000+0  13830-2 0  9999
2 66902  53.1576  34.8086 0001543  82.1186 165.5183 15.74260849  3671
