CCSDS_OMM_VERS = 2.0
CREATION_DATE  = 
ORIGINATOR     = 

OBJECT_NAME    = STARLINK-35855
OBJECT_ID      = 2025-283P
CENTER_NAME    = EARTH
REF_FRAME      = TEME
TIME_SYSTEM    = UTC
MEAN_ELEMENT_THEORY = SGP/SGP4

EPOCH          = 2025-12-20T12:00:02.000160
MEAN_MOTION    = 15.74220674
ECCENTRICITY   = .0001338
INCLINATION    = 53.1577
RA_OF_ASC_NODE = 34.8542
ARG_OF_PERICENTER = 81.3809
MEAN_ANOMALY   = 145.1048

EPHEMERIS_TYPE = 0
CLASSIFICATION_TYPE = U
NORAD_CAT_ID   = 66891
ELEMENT_SET_NO = 999
REV_AT_EPOCH   = 367
BSTAR          = -.44697E-3
MEAN_MOTION_DOT = -.65673E-3
MEAN_MOTION_DDOT = 0

CCSDS_OMM_VERS = 2.0
CREATION_DATE  = 
ORIGINATOR     = 

OBJECT_NAME    = STARLINK-35883
OBJECT_ID      = 2025-283Q
CENTER_NAME    = EARTH
REF_FRAME      = TEME
TIME_SYSTEM    = UTC
MEAN_ELEMENT_THEORY = SGP/SGP4

EPOCH          = 2025-12-20T12:00:02.000160
MEAN_MOTION    = 15.74182465
ECCENTRICITY   = .0001229
INCLINATION    = 53.1578
RA_OF_ASC_NODE = 34.8498
ARG_OF_PERICENTER = 63.8667
MEAN_ANOMALY   = 164.5593

EPHEMERIS_TYPE = 0
CLASSIFICATION_TYPE = U
NORAD_CAT_ID   = 66892
ELEMENT_SET_NO = 999
REV_AT_EPOCH   = 361
BSTAR          = -.93897E-4
MEAN_MOTION_DOT = -.14353E-3
MEAN_MOTION_DDOT = 0

CCSDS_OMM_VERS = 2.0
CREATION_DATE  = 
ORIGINATOR     = 

OBJECT_NAME    = STARLINK-36033
OBJECT_ID      = 2025-283R
CENTER_NAME    = EARTH
REF_FRAME      = TEME
TIME_SYSTEM    = UTC
MEAN_ELEMENT_THEORY = SGP/SGP4

EPOCH          = 2025-12-20T12:00:02.000160
MEAN_MOTION    = 15.74174225
ECCENTRICITY   = .000102
INCLINATION    = 53.1578
RA_OF_ASC_NODE = 34.8455
ARG_OF_PERICENTER = 69.2902
MEAN_ANOMALY   = 161.0495

EPHEMERIS_TYPE = 0
CLASSIFICATION_TYPE = U
NORAD_CAT_ID   = 66893
ELEMENT_SET_NO = 999
REV_AT_EPOCH   = 367
BSTAR          = -.66181E-4
MEAN_MOTION_DOT = -.10303E-3
MEAN_MOTION_DDOT = 0

CCSDS_OMM_VERS = 2.0
CREATION_DATE  = 
ORIGINATOR     = 

OBJECT_NAME    = STARLINK-35718
OBJECT_ID      = 2025-283S
CENTER_NAME    = EARTH
REF_FRAME      = TEME
TIME_SYSTEM    = UTC
MEAN_ELEMENT_THEORY = SGP/SGP4

EPOCH          = 2025-12-20T12:00:02.000160
MEAN_MOTION    = 15.74130427
ECCENTRICITY   = .0001076
INCLINATION    = 53.1579
RA_OF_ASC_NODE = 34.8422
ARG_OF_PERICENTER = 74.6419
MEAN_ANOMALY   = 157.6532

EPHEMERIS_TYPE = 0
CLASSIFICATION_TYPE = U
NORAD_CAT_ID   = 66894
ELEMENT_SET_NO = 999
REV_AT_EPOCH   = 367
BSTAR          = .34024E-3
MEAN_MOTION_DOT = .49365E-3
MEAN_MOTION_DDOT = 0

CCSDS_OMM_VERS = 2.0
CREATION_DATE  = 
ORIGINATOR     = 

OBJECT_NAME    = STARLINK-35971
OBJECT_ID      = 2025-283T
CENTER_NAME    = EARTH
REF_FRAME      = TEME
TIME_SYSTEM    = UTC
MEAN_ELEMENT_THEORY = SGP/SGP4

EPOCH          = 2025-12-20T12:00:02.000160
MEAN_MOTION    = 15.74201981
ECCENTRICITY   = .000132
INCLINATION    = 53.1580
RA_OF_ASC_NODE = 34.8329
ARG_OF_PERICENTER = 75.6649
MEAN_ANOMALY   = 160.4280

EPHEMERIS_TYPE = 0
CLASSIFICATION_TYPE = U
NORAD_CAT_ID   = 66895
ELEMENT_SET_NO = 999
REV_AT_EPOCH   = 367
BSTAR          = -.38398E-3
MEAN_MOTION_DOT = -.56521E-3
MEAN_MOTION_DDOT = 0

CCSDS_OMM_VERS = 2.0
CREATION_DATE  = 
ORIGINATOR     = 

OBJECT_NAME    = STARLINK-35791
OBJECT_ID      = 2025-283U
CENTER_NAME    = EARTH
REF_FRAME      = TEME
TIME_SYSTEM    = UTC
MEAN_ELEMENT_THEORY = SGP/SGP4

EPOCH          = 2025-12-20T12:00:02.000160
MEAN_MOTION    = 15.74187790
ECCENTRICITY   = .0001199
INCLINATION    = 53.1576
RA_OF_ASC_NODE = 34.8371
ARG_OF_PERICENTER = 80.5347
MEAN_ANOMALY   = 153.6491

EPHEMERIS_TYPE = 0
CLASSIFICATION_TYPE = U
NORAD_CAT_ID   = 66896
ELEMENT_SET_NO = 999
REV_AT_EPOCH   = 367
BSTAR          = -.24151E-3
MEAN_MOTION_DOT = -.35847E-3
MEAN_MOTION_DDOT = 0

CCSDS_OMM_VERS = 2.0
CREATION_DATE  = 
ORIGINATOR     = 

OBJECT_NAME    = STARLINK-36079
OBJECT_ID      = 2025-283V
CENTER_NAME    = EARTH
REF_FRAME      = TEME
TIME_SYSTEM    = UTC
MEAN_ELEMENT_THEORY = SGP/SGP4

EPOCH          = 2025-12-20T12:00:02.000160
MEAN_MOTION    = 15.74193188
ECCENTRICITY   = .0001176
INCLINATION    = 53.1575
RA_OF_ASC_NODE = 34.8296
ARG_OF_PERICENTER = 74.5805
MEAN_ANOMALY   = 163.4364

EPHEMERIS_TYPE = 0
CLASSIFICATION_TYPE = U
NORAD_CAT_ID   = 66897
ELEMENT_SET_NO = 999
REV_AT_EPOCH   = 367
BSTAR          = -.31476E-3
MEAN_MOTION_DOT = -.46482E-3
MEAN_MOTION_DDOT = 0

CCSDS_OMM_VERS = 2.0
CREATION_DATE  = 
ORIGINATOR     = 

OBJECT_NAME    = STARLINK-36065
OBJECT_ID      = 2025-283W
CENTER_NAME    = EARTH
REF_FRAME      = TEME
TIME_SYSTEM    = UTC
MEAN_ELEMENT_THEORY = SGP/SGP4

EPOCH          = 2025-12-20T12:00:02.000160
MEAN_MOTION    = 15.74183757
ECCENTRICITY   = .00009
INCLINATION    = 53.1580
RA_OF_ASC_NODE = 34.8248
ARG_OF_PERICENTER = 73.1524
MEAN_ANOMALY   = 166.7702

EPHEMERIS_TYPE = 0
CLASSIFICATION_TYPE = U
NORAD_CAT_ID   = 66898
ELEMENT_SET_NO = 999
REV_AT_EPOCH   = 367
BSTAR          = -.13268E-3
MEAN_MOTION_DOT = -.20009E-3
MEAN_MOTION_DDOT = 0

CCSDS_OMM_VERS = 2.0
CREATION_DATE  = 
ORIGINATOR     = 

OBJECT_NAME    = STARLINK-36064
OBJECT_ID      = 2025-283X
CENTER_NAME    = EARTH
REF_FRAME      = TEME
TIME_SYSTEM    = UTC
MEAN_ELEMENT_THEORY = SGP/SGP4

EPOCH          = 2025-12-20T12:00:02.000160
MEAN_MOTION    = 15.74188144
ECCENTRICITY   = .0001429
INCLINATION    = 53.1577
RA_OF_ASC_NODE = 34.8209
ARG_OF_PERICENTER = 87.2259
MEAN_ANOMALY   = 154.6179

EPHEMERIS_TYPE = 0
CLASSIFICATION_TYPE = U
NORAD_CAT_ID   = 66899
ELEMENT_SET_NO = 999
REV_AT_EPOCH   = 361
BSTAR          = -.23367E-3
MEAN_MOTION_DOT = -.3471E-3
MEAN_MOTION_DDOT = 0

CCSDS_OMM_VERS = 2.0
CREATION_DATE  = 
ORIGINATOR     = 

OBJECT_NAME    = STARLINK-36074
OBJECT_ID      = 2025-283Y
CENTER_NAME    = EARTH
REF_FRAME      = TEME
TIME_SYSTEM    = UTC
MEAN_ELEMENT_THEORY = SGP/SGP4

EPOCH          = 2025-12-20T12:00:02.000160
MEAN_MOTION    = 15.74194697
ECCENTRICITY   = .0001006
INCLINATION    = 53.1577
RA_OF_ASC_NODE = 34.8169
ARG_OF_PERICENTER = 66.2275
MEAN_ANOMALY   = 177.5251

EPHEMERIS_TYPE = 0
CLASSIFICATION_TYPE = U
NORAD_CAT_ID   = 66900
ELEMENT_SET_NO = 999
REV_AT_EPOCH   = 367
BSTAR          = -.32132E-3
MEAN_MOTION_DOT = -.47434E-3
MEAN_MOTION_DDOT = 0

CCSDS_OMM_VERS = 2.0
CREATION_DATE  = 
ORIGINATOR     = 

OBJECT_NAME    = STARLINK-36043
OBJECT_ID      = 2025-283Z
CENTER_NAME    = EARTH
REF_FRAME      = TEME
TIME_SYSTEM    = UTC
MEAN_ELEMENT_THEORY = SGP/SGP4

EPOCH          = 2025-12-20T12:00:02.000160
MEAN_MOTION    = 15.74280190
ECCENTRICITY   = .0001462
INCLINATION    = 53.1578
RA_OF_ASC_NODE = 34.8128
ARG_OF_PERICENTER = 63.5694
MEAN_ANOMALY   = 182.0189

EPHEMERIS_TYPE = 0
CLASSIFICATION_TYPE = U
NORAD_CAT_ID   = 66901
ELEMENT_SET_NO = 999
REV_AT_EPOCH   = 367
BSTAR          = -.73175E-3
MEAN_MOTION_DOT = -.106873E-2
MEAN_MOTION_DDOT = 0

CCSDS_OMM_VERS = 2.0
CREATION_DATE  = 
ORIGINATOR     = 

OBJECT_NAME    = STARLINK-35983
OBJECT_ID      = 2025-283AA
CENTER_NAME    = EARTH
REF_FRAME      = TEME
TIME_SYSTEM    = UTC
MEAN_ELEMENT_THEORY = SGP/SGP4

EPOCH          = 2025-12-20T12:00:02.000160
MEAN_MOTION    = 15.74260849
ECCENTRICITY   = .0001543
INCLINATION    = 53.1576
RA_OF_ASC_NODE = 34.8086
ARG_OF_PERICENTER = 82.1186
MEAN_ANOMALY   = 165.5183

EPHEMERIS_TYPE = 0
CLASSIFICATION_TYPE = U
NORAD_CAT_ID   = 66902
ELEMENT_SET_NO = 999
REV_AT_EPOCH   = 367
BSTAR          = .1383E-2
MEAN_MOTION_DOT = .207628E-2
MEAN_MOTION_DDOT = 0

